ONEWEB-0369             
1 49295U 21090S   23331.48377629  .00002321  00000+0  57646-2 0  9996
2 49295  87.9168 130.6188 0001325  96.3233 263.8050 13.19713467103396
ONEWEB-0370             
1 49296U 21090T   23331.45440189 -.00000295  00000+0 -75848-3 0  9991
2 49296  87.9179 100.1191 0002564 110.5710 249.5699 13.20773281106744
ONEWEB-0371             
1 49297U 21090U   23331.49167236  .00000006  00000+0 -17471-4 0  9993
2 49297  87.9171 130.6071 0001433  92.7681 267.3615 13.19725334103437
ONEWEB-0372             
1 49298U 21090V   23331.44386948  .00000068  00000+0  13542-3 0  9993
2 49298  87.9184 100.1240 0001353 113.0227 247.1049 13.20772465106716
ONEWEB-0373             
1 49299U 21090W   23331.39546210  .00000076  00000+0  15448-3 0  9994
2 49299  87.9252 100.1360 0001505  83.4422 276.6882 13.20773360107899
ONEWEB-0374             
1 49300U 21090X   23331.44749807 -.00000375  00000+0 -10467-2 0  9999
2 49300  87.8951 115.3730 0001406  95.5611 264.5679 13.14502797105020
ONEWEB-0375             
1 49301U 21090Y   23331.38284741  .00000109  00000+0  23714-3 0  9997
2 49301  87.9173 100.1331 0002199  87.6537 272.4848 13.20774162107398
ONEWEB-0376             
1 49302U 21090Z   23331.49009078  .00000049  00000+0  89957-4 0  9993
2 49302  87.9172 130.6254 0001242  99.1159 261.0114 13.19727491103438
